MTI                     
1 26102U 00014A   21171.18815944  .00008659  00000-0  10405-3 0  9999
2 26102  97.4659  77.9064 0004958 325.9805  34.1133 15.61122042181777
CFESAT                  
1 30777U 07006F   21171.25271885  .00004503  00000-0  11127-3 0  9994
2 30777  35.4236 120.2829 0005752 290.1827  69.8281 15.39967915793111
SPIRALE A               
1 33751U 09008C   21171.16678908  .00000069  00000-0  25514-3 0  9998
2 33751   2.0182 233.7043 5385428 290.4739  21.2864  4.58790989178081
SPIRALE B               
1 33752U 09008D   21171.10919744  .00009275  00000-0  13263-2 0  9994
2 33752   2.1089 317.2733 6905362 116.7416 327.6696  2.78110740114976
SAPPHIRE                
1 39088U 13009C   21171.28054637  .00000004  00000-0  16789-4 0  9997
2 39088  98.4466  10.7406 0010181 274.0856  85.9166 14.34245218435223
